{
    "links": {
        "self": "http://www.neowsapp.com/rest/v1/neo/3771597?api_key=iIulBulltgU6a56xZRHN4H3l9WmuAYTsLGpBGhQ2"
    },
    "id": "3771597",
    "neo_reference_id": "3771597",
    "name": "(2017 DY119)",
    "designation": "2017 DY119",
    "nasa_jpl_url": "http://ssd.jpl.nasa.gov/sbdb.cgi?sstr=3771597",
    "absolute_magnitude_h": 26.059,
    "estimated_diameter": {
        "kilometers": {
            "estimated_diameter_min": 0.0163213086,
            "estimated_diameter_max": 0.0364955555
        },
        "meters": {
            "estimated_diameter_min": 16.3213086072,
            "estimated_diameter_max": 36.4955555276
        },
        "miles": {
            "estimated_diameter_min": 0.0101415879,
            "estimated_diameter_max": 0.0226772798
        },
        "feet": {
            "estimated_diameter_min": 53.547602131,
            "estimated_diameter_max": 119.736078397
        }
    },
    "is_potentially_hazardous_asteroid": false,
    "close_approach_data": [
        {
            "close_approach_date": "2017-02-13",
            "close_approach_date_full": "2017-Feb-13 12:41",
            "epoch_date_close_approach": 1486989660000,
            "relative_velocity": {
                "kilometers_per_second": "13.6220059343",
                "kilometers_per_hour": "49039.2213633734",
                "miles_per_hour": "30471.0650743695"
            },
            "miss_distance": {
                "astronomical": "0.0178467631",
                "lunar": "6.9423908459",
                "kilometers": "2669837.746154597",
                "miles": "1658960.2484515586"
            },
            "orbiting_body": "Earth"
        }
    ],
    "orbital_data": {
        "orbit_id": "2",
        "orbit_determination_date": "2017-04-06 08:19:48",
        "first_observation_date": "2017-02-22",
        "last_observation_date": "2017-02-23",
        "data_arc_in_days": 1,
        "observations_used": 7,
        "orbit_uncertainty": "9",
        "minimum_orbit_intersection": ".016822",
        "jupiter_tisserand_invariant": "3.532",
        "epoch_osculation": "2457807.5",
        "eccentricity": ".6050221748646151",
        "semi_major_axis": "2.055289434453478",
        "inclination": "2.509697681868953",
        "ascending_node_longitude": "122.7205750698221",
        "orbital_period": "1076.236982155908",
        "perihelion_distance": ".8117937508441702",
        "perihelion_argument": "324.8706426191997",
        "aphelion_distance": "3.298785118062787",
        "perihelion_time": "2457759.493518366870",
        "mean_anomaly": "16.05811143314086",
        "mean_motion": ".3344988194689718",
        "equinox": "J2000",
        "orbit_class": {
            "orbit_class_type": "APO",
            "orbit_class_description": "Near-Earth asteroid orbits which cross the Earth’s orbit similar to that of 1862 Apollo",
            "orbit_class_range": "a (semi-major axis) > 1.0 AU; q (perihelion) < 1.017 AU"
        }
    },
    "is_sentry_object": false
}